     3.02           N: GNSS NAV DATA    E: GALILEO          RINEX VERSION / TYPE
cnvtToRINEX 2.30.0  REGINA              16-Jan-16 00:25 UTC PGM / RUN BY / DATE 
----------------------------------------------------------- COMMENT             
GAL    0.7725D+02 -0.6523D+00  0.9308D-02                   IONOSPHERIC CORR    
GAUT -0.2793967724D-08 0.177635684D-14 432000 1879          TIME SYSTEM CORR    
                                                            END OF HEADER       
E12 2016 01 15 17 50 00-0.375347095542D-03-0.150251366904D-09 0.000000000000D+00
     0.590000000000D+02-0.362500000000D+02 0.332763860950D-08 0.267619100379D+01
    -0.173598527908D-05 0.289979390800D-03 0.351667404175D-05 0.544061646080D+04
     0.496200000000D+06 0.521540641785D-07-0.394487752135D+00 0.409781932831D-07
     0.967955628586D+00 0.267031250000D+03-0.118208910234D+01-0.596953436935D-08
     0.171792870148D-09 0.513000000000D+03 0.187900000000D+04 0.000000000000D+00
     0.107000000000D+03 0.000000000000D+00-0.535510480404D-08 0.000000000000D+00
     0.496894000000D+06 0.000000000000D+00 0.000000000000D+00 0.000000000000D+00
E11 2016 01 15 17 50 00 0.235831248574D-04 0.109565689854D-10 0.000000000000D+00
     0.590000000000D+02-0.378437500000D+02 0.332799576724D-08 0.137882118603D+01
    -0.172108411789D-05 0.176592962816D-03 0.328756868839D-05 0.544061504555D+04
     0.496200000000D+06 0.875443220139D-07-0.394469253536D+00 0.260770320892D-07
     0.967944327544D+00 0.273062500000D+03-0.603279725776D+00-0.595560521772D-08
     0.178936024832D-09 0.516000000000D+03 0.187900000000D+04 0.000000000000D+00
     0.107000000000D+03 0.000000000000D+00-0.954605638981D-08 0.000000000000D+00
     0.496885000000D+06 0.000000000000D+00 0.000000000000D+00 0.000000000000D+00
E30 2016 01 15 17 50 00 0.180602050386D-02 0.399239752369D-09 0.000000000000D+00
     0.590000000000D+02-0.420312500000D+02 0.256153526965D-08 0.566234520432D+00
    -0.192038714886D-05 0.287402304821D-03 0.912509858608D-05 0.544062398338D+04
     0.496200000000D+06 0.670552253723D-07-0.249061785879D+01 0.130385160446D-07
     0.100105335284D+01 0.159156250000D+03-0.429290618592D-01-0.545415575891D-08
    -0.525736184737D-09 0.516000000000D+03 0.187900000000D+04 0.000000000000D+00
     0.107000000000D+03 0.640000000000D+02 0.698491930962D-08 0.000000000000D+00
     0.496885000000D+06 0.000000000000D+00 0.000000000000D+00 0.000000000000D+00
E12 2016 01 15 17 50 00-0.375347095542D-03-0.150251366904D-09 0.000000000000D+00
     0.590000000000D+02-0.362500000000D+02 0.332763860950D-08 0.267619100379D+01
    -0.173598527908D-05 0.289979390800D-03 0.351667404175D-05 0.544061646080D+04
     0.496200000000D+06 0.521540641785D-07-0.394487752135D+00 0.409781932831D-07
     0.967955628586D+00 0.267031250000D+03-0.118208910234D+01-0.596953436935D-08
     0.171792870148D-09 0.516000000000D+03 0.187900000000D+04 0.000000000000D+00
     0.107000000000D+03 0.000000000000D+00-0.535510480404D-08 0.000000000000D+00
     0.496885000000D+06 0.000000000000D+00 0.000000000000D+00 0.000000000000D+00
E30 2016 01 15 17 50 00 0.180602225009D-02 0.399253963224D-09 0.000000000000D+00
     0.590000000000D+02-0.420312500000D+02 0.256153526965D-08 0.566234520432D+00
    -0.192038714886D-05 0.287402304821D-03 0.912509858608D-05 0.544062398338D+04
     0.496200000000D+06 0.670552253723D-07-0.249061785879D+01 0.130385160446D-07
     0.100105335284D+01 0.159156250000D+03-0.429290618592D-01-0.545415575891D-08
    -0.525736184737D-09 0.258000000000D+03 0.187900000000D+04 0.000000000000D+00
     0.107000000000D+03 0.000000000000D+00 0.000000000000D+00 0.000000000000D+00
     0.496930000000D+06 0.000000000000D+00 0.000000000000D+00 0.000000000000D+00
E11 2016 01 15 18 00 00 0.235898187384D-04 0.109565689854D-10 0.000000000000D+00
     0.600000000000D+02-0.360000000000D+02 0.330978072280D-08 0.145130466313D+01
    -0.164471566677D-05 0.176515197381D-03 0.336952507496D-05 0.544061573410D+04
     0.496800000000D+06 0.465661287308D-07-0.394472682616D+00 0.558793544769D-08
     0.967944552833D+00 0.271062500000D+03-0.601377699669D+00-0.594310469702D-08
     0.151077721565D-09 0.513000000000D+03 0.187900000000D+04 0.000000000000D+00
     0.107000000000D+03 0.000000000000D+00-0.954605638981D-08 0.000000000000D+00
     0.497494000000D+06 0.000000000000D+00 0.000000000000D+00 0.000000000000D+00
E30 2016 01 15 18 00 00 0.180626043584D-02 0.399239752369D-09 0.000000000000D+00
     0.600000000000D+02-0.394687500000D+02 0.255510643044D-08 0.639624562016D+00
    -0.179558992386D-05 0.287594739348D-03 0.916421413422D-05 0.544062467384D+04
     0.496800000000D+06 0.670552253723D-07-0.249062113280D+01 0.130385160446D-07
     0.100105304124D+01 0.158343750000D+03-0.419343668033D-01-0.545451291664D-08
    -0.525736184737D-09 0.513000000000D+03 0.187900000000D+04 0.000000000000D+00
     0.107000000000D+03 0.640000000000D+02 0.698491930962D-08 0.000000000000D+00
     0.497494000000D+06 0.000000000000D+00 0.000000000000D+00 0.000000000000D+00
E12 2016 01 15 18 00 00-0.375436851755D-03-0.150265577759D-09 0.000000000000D+00
     0.600000000000D+02-0.360000000000D+02 0.332656713630D-08 0.275059411907D+01
    -0.172108411789D-05 0.290035619400D-03 0.349804759026D-05 0.544061634827D+04
     0.496800000000D+06 0.428408384323D-07-0.394491374321D+00 0.447034835815D-07
     0.967955719287D+00 0.267375000000D+03-0.118210686217D+01-0.596774858068D-08
     0.177150236161D-09 0.513000000000D+03 0.187900000000D+04 0.000000000000D+00
     0.107000000000D+03 0.000000000000D+00-0.535510480404D-08 0.000000000000D+00
     0.497494000000D+06 0.000000000000D+00 0.000000000000D+00 0.000000000000D+00
E11 2016 01 15 18 00 00 0.235898187384D-04 0.109565689854D-10 0.000000000000D+00
     0.600000000000D+02-0.360000000000D+02 0.330978072280D-08 0.145130466313D+01
    -0.164471566677D-05 0.176515197381D-03 0.336952507496D-05 0.544061573410D+04
     0.496800000000D+06 0.465661287308D-07-0.394472682616D+00 0.558793544769D-08
     0.967944552833D+00 0.271062500000D+03-0.601377699669D+00-0.594310469702D-08
     0.151077721565D-09 0.516000000000D+03 0.187900000000D+04 0.000000000000D+00
     0.107000000000D+03 0.000000000000D+00-0.954605638981D-08 0.000000000000D+00
     0.497485000000D+06 0.000000000000D+00 0.000000000000D+00 0.000000000000D+00
E30 2016 01 15 18 00 00 0.180626043584D-02 0.399239752369D-09 0.000000000000D+00
     0.600000000000D+02-0.394687500000D+02 0.255510643044D-08 0.639624562016D+00
    -0.179558992386D-05 0.287594739348D-03 0.916421413422D-05 0.544062467384D+04
     0.496800000000D+06 0.670552253723D-07-0.249062113280D+01 0.130385160446D-07
     0.100105304124D+01 0.158343750000D+03-0.419343668033D-01-0.545451291664D-08
    -0.525736184737D-09 0.516000000000D+03 0.187900000000D+04 0.000000000000D+00
     0.107000000000D+03 0.640000000000D+02 0.698491930962D-08 0.000000000000D+00
     0.497485000000D+06 0.000000000000D+00 0.000000000000D+00 0.000000000000D+00
E12 2016 01 15 18 00 00-0.375436851755D-03-0.150265577759D-09 0.000000000000D+00
     0.600000000000D+02-0.360000000000D+02 0.332656713630D-08 0.275059411907D+01
    -0.172108411789D-05 0.290035619400D-03 0.349804759026D-05 0.544061634827D+04
     0.496800000000D+06 0.428408384323D-07-0.394491374321D+00 0.447034835815D-07
     0.967955719287D+00 0.267375000000D+03-0.118210686217D+01-0.596774858068D-08
     0.177150236161D-09 0.516000000000D+03 0.187900000000D+04 0.000000000000D+00
     0.107000000000D+03 0.000000000000D+00-0.535510480404D-08 0.000000000000D+00
     0.497485000000D+06 0.000000000000D+00 0.000000000000D+00 0.000000000000D+00
E30 2016 01 15 18 00 00 0.180626229849D-02 0.399253963224D-09 0.000000000000D+00
     0.600000000000D+02-0.394687500000D+02 0.255510643044D-08 0.639624562016D+00
    -0.179558992386D-05 0.287594739348D-03 0.916421413422D-05 0.544062467384D+04
     0.496800000000D+06 0.670552253723D-07-0.249062113280D+01 0.130385160446D-07
     0.100105304124D+01 0.158343750000D+03-0.419343668033D-01-0.545451291664D-08
    -0.525736184737D-09 0.258000000000D+03 0.187900000000D+04 0.000000000000D+00
     0.107000000000D+03 0.000000000000D+00 0.000000000000D+00 0.000000000000D+00
     0.497530000000D+06 0.000000000000D+00 0.000000000000D+00 0.000000000000D+00
E12 2016 01 15 18 00 00-0.375437259208D-03-0.150265577759D-09 0.000000000000D+00
     0.600000000000D+02-0.360000000000D+02 0.332656713630D-08 0.275059411907D+01
    -0.172108411789D-05 0.290035619400D-03 0.349804759026D-05 0.544061634827D+04
     0.496800000000D+06 0.428408384323D-07-0.394491374321D+00 0.447034835815D-07
     0.967955719287D+00 0.267375000000D+03-0.118210686217D+01-0.596774858068D-08
     0.177150236161D-09 0.258000000000D+03 0.187900000000D+04 0.000000000000D+00
     0.107000000000D+03 0.000000000000D+00 0.000000000000D+00 0.000000000000D+00
     0.497530000000D+06 0.000000000000D+00 0.000000000000D+00 0.000000000000D+00
E11 2016 01 15 18 00 00 0.235901097767D-04 0.109565689854D-10 0.000000000000D+00
     0.600000000000D+02-0.360000000000D+02 0.330978072280D-08 0.145130466313D+01
    -0.164471566677D-05 0.176515197381D-03 0.336952507496D-05 0.544061573410D+04
     0.496800000000D+06 0.465661287308D-07-0.394472682616D+00 0.558793544769D-08
     0.967944552833D+00 0.271062500000D+03-0.601377699669D+00-0.594310469702D-08
     0.151077721565D-09 0.258000000000D+03 0.187900000000D+04 0.000000000000D+00
     0.107000000000D+03 0.000000000000D+00 0.000000000000D+00 0.000000000000D+00
     0.497530000000D+06 0.000000000000D+00 0.000000000000D+00 0.000000000000D+00
